STARLINK-4386           
1 53649U 22105B   26068.64453437 -.00000280  00000+0 -15178-4 0  9992
2 53649  97.6023 311.2230 0002183  74.0252 286.1215 15.05650293193297
CENTAURI-6              
1 59451U 24066K   26068.32290132  .00007311  00000+0  52686-3 0  9997
2 59451  45.6063  55.7055 0002534 285.4438  74.6166 15.04786474105074
